{
  "type": "FeatureCollection",
  "features": [
    {
      "type": "Feature",
      "properties": {
        "norad_id": 66702,
        "name": "IRIDE FM8",
        "group": "last-30-days",
        "lat": 35.50693754608163,
        "lon": -108.09156720603654,
        "alt_km": 512.7512412684409,
        "timestamp": "2025-12-20T22:39:09.406744+00:00",
        "meta_object_name": "IRIDE FM8",
        "meta_object_id": "2025-276AN",
        "meta_epoch": "2025-12-20T14:06:21.765024",
        "meta_mean_motion": 15.17349141,
        "meta_eccentricity": 0.00027616,
        "meta_inclination": 97.4408,
        "meta_ra_of_asc_node": 66.2083,
        "meta_arg_of_pericenter": 276.1118,
        "meta_mean_anomaly": 83.9801,
        "meta_ephemeris_type": 0,
        "meta_classification_type": "U",
        "meta_norad_cat_id": 66702,
        "meta_element_set_no": 999,
        "meta_rev_at_epoch": 331,
        "meta_bstar": 0.00032224157,
        "meta_mean_motion_dot": 6.366e-05,
        "meta_mean_motion_ddot": 0,
        "tle_line1": "1 66702U 25276AN  25354.58775191  .00006366  00000+0  32224-3 0  9991",
        "tle_line2": "2 66702  97.4408  66.2083 0002761 276.1118  83.9801 15.17349141  3314"
      },
      "geometry": {
        "type": "Point",
        "coordinates": [
          -108.09156720603654,
          35.50693754608163
        ]
      }
    },
    {
      "type": "Feature",
      "properties": {
        "norad_id": 66703,
        "name": "PELICAN-6",
        "group": "last-30-days",
        "lat": 28.211067977887588,
        "lon": -109.41583157070137,
        "alt_km": 512.9804263806855,
        "timestamp": "2025-12-20T22:39:09.406753+00:00",
        "meta_object_name": "PELICAN-6",
        "meta_object_id": "2025-276AP",
        "meta_epoch": "2025-12-20T14:04:25.052448",
        "meta_mean_motion": 15.17319505,
        "meta_eccentricity": 8.213e-05,
        "meta_inclination": 97.4417,
        "meta_ra_of_asc_node": 66.2123,
        "meta_arg_of_pericenter": 264.5476,
        "meta_mean_anomaly": 95.5664,
        "meta_ephemeris_type": 0,
        "meta_classification_type": "U",
        "meta_norad_cat_id": 66703,
        "meta_element_set_no": 999,
        "meta_rev_at_epoch": 331,
        "meta_bstar": 0.00030270954,
        "meta_mean_motion_dot": 5.97e-05,
        "meta_mean_motion_ddot": 0,
        "tle_line1": "1 66703U 25276AP  25354.58640107  .00005970  00000+0  30271-3 0  9990",
        "tle_line2": "2 66703  97.4417  66.2123 0000821 264.5476  95.5664 15.17319505  3310"
      },
      "geometry": {
        "type": "Point",
        "coordinates": [
          -109.41583157070137,
          28.211067977887588
        ]
      }
    },
    {
      "type": "Feature",
      "properties": {
        "norad_id": 66704,
        "name": "FLOCK 4H-1",
        "group": "last-30-days",
        "lat": -22.13390204505995,
        "lon": -116.47091957932699,
        "alt_km": 516.1500976586185,
        "timestamp": "2025-12-20T22:39:09.406763+00:00",
        "meta_object_name": "FLOCK 4H-1",
        "meta_object_id": "2025-276AQ",
        "meta_epoch": "2025-12-20T13:51:16.855488",
        "meta_mean_motion": 15.18049514,
        "meta_eccentricity": 0.00016617,
        "meta_inclination": 97.4393,
        "meta_ra_of_asc_node": 66.2153,
        "meta_arg_of_pericenter": 176.996,
        "meta_mean_anomaly": 183.1284,
        "meta_ephemeris_type": 0,
        "meta_classification_type": "U",
        "meta_norad_cat_id": 66704,
        "meta_element_set_no": 999,
        "meta_rev_at_epoch": 331,
        "meta_bstar": 0.00030626036,
        "meta_mean_motion_dot": 6.17e-05,
        "meta_mean_motion_ddot": 0,
        "tle_line1": "1 66704U 25276AQ  25354.57727842  .00006170  00000+0  30626-3 0  9999",
        "tle_line2": "2 66704  97.4393  66.2153 0001661 176.9960 183.1284 15.18049514  3317"
      },
      "geometry": {
        "type": "Point",
        "coordinates": [
          -116.47091957932699,
          -22.13390204505995
        ]
      }
    },
    {
      "type": "Feature",
      "properties": {
        "norad_id": 66705,
        "name": "FLOCK 4H-2",
        "group": "last-30-days",
        "lat": -24.294323679809565,
        "lon": -116.80464916236187,
        "alt_km": 516.7681508253881,
        "timestamp": "2025-12-20T22:39:09.406772+00:00",
        "meta_object_name": "FLOCK 4H-2",
        "meta_object_id": "2025-276AR",
        "meta_epoch": "2025-12-20T13:50:43.391040",
        "meta_mean_motion": 15.18100258,
        "meta_eccentricity": 8.886e-05,
        "meta_inclination": 97.4384,
        "meta_ra_of_asc_node": 66.2156,
        "meta_arg_of_pericenter": 159.723,
        "meta_mean_anomaly": 200.4039,
        "meta_ephemeris_type": 0,
        "meta_classification_type": "U",
        "meta_norad_cat_id": 66705,
        "meta_element_set_no": 999,
        "meta_rev_at_epoch": 331,
        "meta_bstar": 0.00031497123,
        "meta_mean_motion_dot": 6.357e-05,
        "meta_mean_motion_ddot": 0,
        "tle_line1": "1 66705U 25276AR  25354.57689110  .00006357  00000+0  31497-3 0  9999",
        "tle_line2": "2 66705  97.4384  66.2156 0000888 159.7230 200.4039 15.18100258  3314"
      },
      "geometry": {
        "type": "Point",
        "coordinates": [
          -116.80464916236187,
          -24.294323679809565
        ]
      }
    },
    {
      "type": "Feature",
      "properties": {
        "norad_id": 66706,
        "name": "FLOCK 4H-3",
        "group": "last-30-days",
        "lat": 25.308566143028262,
        "lon": -109.87858947906858,
        "alt_km": 513.3782320722303,
        "timestamp": "2025-12-20T22:39:09.406783+00:00",
        "meta_object_name": "FLOCK 4H-3",
        "meta_object_id": "2025-276AS",
        "meta_epoch": "2025-12-20T04:33:56.462976",
        "meta_mean_motion": 15.17450644,
        "meta_eccentricity": 0.00028015,
        "meta_inclination": 97.445,
        "meta_ra_of_asc_node": 65.8354,
        "meta_arg_of_pericenter": 263.5985,
        "meta_mean_anomaly": 96.493,
        "meta_ephemeris_type": 0,
        "meta_classification_type": "U",
        "meta_norad_cat_id": 66706,
        "meta_element_set_no": 999,
        "meta_rev_at_epoch": 325,
        "meta_bstar": 0.00030133315,
        "meta_mean_motion_dot": 5.966e-05,
        "meta_mean_motion_ddot": 0,
        "tle_line1": "1 66706U 25276AS  25354.19023684  .00005966  00000+0  30133-3 0  9997",
        "tle_line2": "2 66706  97.4450  65.8354 0002801 263.5985  96.4930 15.17450644  3254"
      },
      "geometry": {
        "type": "Point",
        "coordinates": [
          -109.87858947906858,
          25.308566143028262
        ]
      }
    },
    {
      "type": "Feature",
      "properties": {
        "norad_id": 66707,
        "name": "FLOCK 4H-4",
        "group": "last-30-days",
        "lat": 44.643238477765124,
        "lon": -106.01732570809202,
        "alt_km": 512.035903686864,
        "timestamp": "2025-12-20T22:39:09.406794+00:00",
        "meta_object_name": "FLOCK 4H-4",
        "meta_object_id": "2025-276AT",
        "meta_epoch": "2025-12-20T14:08:44.639520",
        "meta_mean_motion": 15.1718024,
        "meta_eccentricity": 0.0003453,
        "meta_inclination": 97.4439,
        "meta_ra_of_asc_node": 66.2152,
        "meta_arg_of_pericenter": 262.8492,
        "meta_mean_anomaly": 97.2349,
        "meta_ephemeris_type": 0,
        "meta_classification_type": "U",
        "meta_norad_cat_id": 66707,
        "meta_element_set_no": 999,
        "meta_rev_at_epoch": 331,
        "meta_bstar": 0.00027736237,
        "meta_mean_motion_dot": 5.443e-05,
        "meta_mean_motion_ddot": 0,
        "tle_line1": "1 66707U 25276AT  25354.58940555  .00005443  00000+0  27736-3 0  9991",
        "tle_line2": "2 66707  97.4439  66.2152 0003453 262.8492  97.2349 15.17180240  3314"
      },
      "geometry": {
        "type": "Point",
        "coordinates": [
          -106.01732570809202,
          44.643238477765124
        ]
      }
    },
    {
      "type": "Feature",
      "properties": {
        "norad_id": 66708,
        "name": "FLOCK 4H-5",
        "group": "last-30-days",
        "lat": -30.528133457542562,
        "lon": -117.83667573347518,
        "alt_km": 517.4911243228562,
        "timestamp": "2025-12-20T22:39:09.406803+00:00",
        "meta_object_name": "FLOCK 4H-5",
        "meta_object_id": "2025-276AU",
        "meta_epoch": "2025-12-20T13:49:04.552896",
        "meta_mean_motion": 15.18135719,
        "meta_eccentricity": 0.00010945,
        "meta_inclination": 97.4397,
        "meta_ra_of_asc_node": 66.2209,
        "meta_arg_of_pericenter": 124.5979,
        "meta_mean_anomaly": 235.5359,
        "meta_ephemeris_type": 0,
        "meta_classification_type": "U",
        "meta_norad_cat_id": 66708,
        "meta_element_set_no": 999,
        "meta_rev_at_epoch": 331,
        "meta_bstar": 0.00030840974,
        "meta_mean_motion_dot": 6.229e-05,
        "meta_mean_motion_ddot": 0,
        "tle_line1": "1 66708U 25276AU  25354.57574714  .00006229  00000+0  30841-3 0  9995",
        "tle_line2": "2 66708  97.4397  66.2209 0001094 124.5979 235.5359 15.18135719  3314"
      },
      "geometry": {
        "type": "Point",
        "coordinates": [
          -117.83667573347518,
          -30.528133457542562
        ]
      }
    }
  ]
}